{
  "type": "FeatureCollection",
  "features": [
    {
      "type": "Feature",
      "properties": {
        "norad_id": 39160,
        "name": "VNREDSAT 1",
        "group": "resource",
        "lat": 37.44031765864938,
        "lon": -140.97019451229437,
        "alt_km": 674.20846162402,
        "timestamp": "2025-12-03T06:58:42.898276+00:00",
        "meta_object_name": "VNREDSAT 1",
        "meta_object_id": "2013-021B",
        "meta_epoch": "2025-12-02T20:29:47.415264",
        "meta_mean_motion": 14.64897967,
        "meta_eccentricity": 0.0001374,
        "meta_inclination": 97.9387,
        "meta_ra_of_asc_node": 32.4749,
        "meta_arg_of_pericenter": 83.898,
        "meta_mean_anomaly": 276.238,
        "meta_ephemeris_type": 0,
        "meta_classification_type": "U",
        "meta_norad_cat_id": 39160,
        "meta_element_set_no": 999,
        "meta_rev_at_epoch": 67154,
        "meta_bstar": 0.00019363,
        "meta_mean_motion_dot": 9.89e-06,
        "meta_mean_motion_ddot": 0,
        "tle_line1": "1 39160U 13021B   25336.85402101  .00000989  00000+0  19363-3 0  9996",
        "tle_line2": "2 39160  97.9387  32.4749 0001374  83.8980 276.2380 14.64897967671546"
      },
      "geometry": {
        "type": "Point",
        "coordinates": [
          -140.97019451229437,
          37.44031765864938
        ]
      }
    },
    {
      "type": "Feature",
      "properties": {
        "norad_id": 39227,
        "name": "ARIRANG-5 (KOMPSAT-5)",
        "group": "resource",
        "lat": -43.9457850869603,
        "lon": 169.13932409634464,
        "alt_km": 561.5298655636179,
        "timestamp": "2025-12-03T06:58:42.898286+00:00",
        "meta_object_name": "ARIRANG-5 (KOMPSAT-5)",
        "meta_object_id": "2013-042A",
        "meta_epoch": "2025-12-02T20:00:08.241408",
        "meta_mean_motion": 15.0449923,
        "meta_eccentricity": 0.0004321,
        "meta_inclination": 97.6159,
        "meta_ra_of_asc_node": 161.2787,
        "meta_arg_of_pericenter": 83.2774,
        "meta_mean_anomaly": 276.8944,
        "meta_ephemeris_type": 0,
        "meta_classification_type": "U",
        "meta_norad_cat_id": 39227,
        "meta_element_set_no": 999,
        "meta_rev_at_epoch": 67433,
        "meta_bstar": 0.00014858,
        "meta_mean_motion_dot": 2.019e-05,
        "meta_mean_motion_ddot": 0,
        "tle_line1": "1 39227U 13042A   25336.83342872  .00002019  00000+0  14858-3 0  9999",
        "tle_line2": "2 39227  97.6159 161.2787 0004321  83.2774 276.8944 15.04499230674335"
      },
      "geometry": {
        "type": "Point",
        "coordinates": [
          169.13932409634464,
          -43.9457850869603
        ]
      }
    },
    {
      "type": "Feature",
      "properties": {
        "norad_id": 39418,
        "name": "SKYSAT-A",
        "group": "resource",
        "lat": 82.57831629864066,
        "lon": -60.391599077989994,
        "alt_km": 538.3139078186432,
        "timestamp": "2025-12-03T06:58:42.898296+00:00",
        "meta_object_name": "SKYSAT-A",
        "meta_object_id": "2013-066C",
        "meta_epoch": "2025-12-02T16:16:56.390880",
        "meta_mean_motion": 15.11484666,
        "meta_eccentricity": 0.0020458,
        "meta_inclination": 97.4129,
        "meta_ra_of_asc_node": 27.1932,
        "meta_arg_of_pericenter": 273.801,
        "meta_mean_anomaly": 86.0881,
        "meta_ephemeris_type": 0,
        "meta_classification_type": "U",
        "meta_norad_cat_id": 39418,
        "meta_element_set_no": 999,
        "meta_rev_at_epoch": 65878,
        "meta_bstar": 0.00030064,
        "meta_mean_motion_dot": 5.05e-05,
        "meta_mean_motion_ddot": 0,
        "tle_line1": "1 39418U 13066C   25336.67843045  .00005050  00000+0  30064-3 0  9992",
        "tle_line2": "2 39418  97.4129  27.1932 0020458 273.8010  86.0881 15.11484666658780"
      },
      "geometry": {
        "type": "Point",
        "coordinates": [
          -60.391599077989994,
          82.57831629864066
        ]
      }
    },
    {
      "type": "Feature",
      "properties": {
        "norad_id": 39419,
        "name": "DUBAISAT-2",
        "group": "resource",
        "lat": -17.34252084906392,
        "lon": -29.66841872173174,
        "alt_km": 538.9342593776073,
        "timestamp": "2025-12-03T06:58:42.898307+00:00",
        "meta_object_name": "DUBAISAT-2",
        "meta_object_id": "2013-066D",
        "meta_epoch": "2025-12-02T21:30:07.251264",
        "meta_mean_motion": 15.08204747,
        "meta_eccentricity": 0.0011546,
        "meta_inclination": 97.4442,
        "meta_ra_of_asc_node": 327.6089,
        "meta_arg_of_pericenter": 357.8971,
        "meta_mean_anomaly": 2.2207,
        "meta_ephemeris_type": 0,
        "meta_classification_type": "U",
        "meta_norad_cat_id": 39419,
        "meta_element_set_no": 999,
        "meta_rev_at_epoch": 65678,
        "meta_bstar": 0.00041165,
        "meta_mean_motion_dot": 6.318e-05,
        "meta_mean_motion_ddot": 0,
        "tle_line1": "1 39419U 13066D   25336.89591726  .00006318  00000+0  41165-3 0  9995",
        "tle_line2": "2 39419  97.4442 327.6089 0011546 357.8971   2.2207 15.08204747656783"
      },
      "geometry": {
        "type": "Point",
        "coordinates": [
          -29.66841872173174,
          -17.34252084906392
        ]
      }
    },
    {
      "type": "Feature",
      "properties": {
        "norad_id": 39574,
        "name": "GPM-CORE",
        "group": "resource",
        "lat": -64.2296785064264,
        "lon": 168.9618605727699,
        "alt_km": 429.9486431578962,
        "timestamp": "2025-12-03T06:58:42.898317+00:00",
        "meta_object_name": "GPM-CORE",
        "meta_object_id": "2014-009C",
        "meta_epoch": "2025-12-02T20:27:58.414752",
        "meta_mean_motion": 15.45149133,
        "meta_eccentricity": 0.0010575,
        "meta_inclination": 64.9754,
        "meta_ra_of_asc_node": 245.8163,
        "meta_arg_of_pericenter": 268.6263,
        "meta_mean_anomaly": 91.3666,
        "meta_ephemeris_type": 0,
        "meta_classification_type": "U",
        "meta_norad_cat_id": 39574,
        "meta_element_set_no": 999,
        "meta_rev_at_epoch": 66748,
        "meta_bstar": 0.00041238,
        "meta_mean_motion_dot": 0.00019493,
        "meta_mean_motion_ddot": 0,
        "tle_line1": "1 39574U 14009C   25336.85275943  .00019493  00000+0  41238-3 0  9990",
        "tle_line2": "2 39574  64.9754 245.8163 0010575 268.6263  91.3666 15.45149133667483"
      },
      "geometry": {
        "type": "Point",
        "coordinates": [
          168.9618605727699,
          -64.2296785064264
        ]
      }
    },
    {
      "type": "Feature",
      "properties": {
        "norad_id": 39634,
        "name": "SENTINEL-1A",
        "group": "resource",
        "lat": -16.79334468653126,
        "lon": 160.18353843591686,
        "alt_km": 700.9316507095436,
        "timestamp": "2025-12-03T06:58:42.898346+00:00",
        "meta_object_name": "SENTINEL-1A",
        "meta_object_id": "2014-016A",
        "meta_epoch": "2025-12-02T20:12:18.326592",
        "meta_mean_motion": 14.59201094,
        "meta_eccentricity": 0.0001253,
        "meta_inclination": 98.1805,
        "meta_ra_of_asc_node": 342.2294,
        "meta_arg_of_pericenter": 89.0937,
        "meta_mean_anomaly": 271.0406,
        "meta_ephemeris_type": 0,
        "meta_classification_type": "U",
        "meta_norad_cat_id": 39634,
        "meta_element_set_no": 999,
        "meta_rev_at_epoch": 62138,
        "meta_bstar": 7.4644e-05,
        "meta_mean_motion_dot": 3.06e-06,
        "meta_mean_motion_ddot": 0,
        "tle_line1": "1 39634U 14016A   25336.84187878  .00000306  00000+0  74644-4 0  9994",
        "tle_line2": "2 39634  98.1805 342.2294 0001253  89.0937 271.0406 14.59201094621386"
      },
      "geometry": {
        "type": "Point",
        "coordinates": [
          160.18353843591686,
          -16.79334468653126
        ]
      }
    },
    {
      "type": "Feature",
      "properties": {
        "norad_id": 39731,
        "name": "KAZEOSAT 1",
        "group": "resource",
        "lat": 33.025567237955514,
        "lon": 43.934930645176756,
        "alt_km": 749.3535681384028,
        "timestamp": "2025-12-03T06:58:42.898359+00:00",
        "meta_object_name": "KAZEOSAT 1",
        "meta_object_id": "2014-024A",
        "meta_epoch": "2025-12-02T20:49:57.065376",
        "meta_mean_motion": 14.42052986,
        "meta_eccentricity": 0.0001053,
        "meta_inclination": 98.3445,
        "meta_ra_of_asc_node": 48.9965,
        "meta_arg_of_pericenter": 98.5692,
        "meta_mean_anomaly": 261.5617,
        "meta_ephemeris_type": 0,
        "meta_classification_type": "U",
        "meta_norad_cat_id": 39731,
        "meta_element_set_no": 999,
        "meta_rev_at_epoch": 61026,
        "meta_bstar": 0.00011563,
        "meta_mean_motion_dot": 3.37e-06,
        "meta_mean_motion_ddot": 0,
        "tle_line1": "1 39731U 14024A   25336.86802159  .00000337  00000+0  11563-3 0  9993",
        "tle_line2": "2 39731  98.3445  48.9965 0001053  98.5692 261.5617 14.42052986610261"
      },
      "geometry": {
        "type": "Point",
        "coordinates": [
          43.934930645176756,
          33.025567237955514
        ]
      }
    }
  ]
}